[{"OBJECT_NAME":"STARLINK-33694","OBJECT_ID":"2025-065J","EPOCH":"2026-03-09T12:03:46.278144","MEAN_MOTION":15.27591151,"ECCENTRICITY":9.871e-5,"INCLINATION":43.0014,"RA_OF_ASC_NODE":107.9282,"ARG_OF_PERICENTER":268.3368,"MEAN_ANOMALY":91.7371,"EPHEMERIS_TYPE":0,"CLASSIFICATION_TYPE":"U","NORAD_CAT_ID":63407,"ELEMENT_SET_NO":999,"REV_AT_EPOCH":5281,"BSTAR":0.0009160915,"MEAN_MOTION_DOT":0.00025041,"MEAN_MOTION_DDOT":0},{"OBJECT_NAME":"CZ-6A DEB","OBJECT_ID":"2022-151DE","EPOCH":"2026-03-09T09:45:43.657920","MEAN_MOTION":15.34292219,"ECCENTRICITY":0.00393756,"INCLINATION":99.0022,"RA_OF_ASC_NODE":218.5596,"ARG_OF_PERICENTER":192.6197,"MEAN_ANOMALY":167.4059,"EPHEMERIS_TYPE":0,"CLASSIFICATION_TYPE":"U","NORAD_CAT_ID":54359,"ELEMENT_SET_NO":999,"REV_AT_EPOCH":10560,"BSTAR":0.0065240017,"MEAN_MOTION_DOT":0.00228186,"MEAN_MOTION_DDOT":0}]
